GSAT-10                 
1 38779U 12051B   26178.18109591 -.00000153  00000+0  00000+0 0  9999
2 38779   0.0587 258.6398 0008171 192.4358 332.4392  1.00271983 50198
INTELSAT 23 (IS-23)     
1 38867U 12057A   26178.22544428 -.00000273  00000+0  00000+0 0  9993
2 38867   0.0109  34.9118 0000235 124.4833 144.0919  1.00271309 50056
BEIDOU-2 G6             
1 38953U 12059A   26178.11001068 -.00000168  00000+0  00000+0 0  9990
2 38953   4.4468  73.4212 0009695 328.8904 356.5521  1.00271322 50008
LUCH-5B                 
1 38977U 12061A   26177.94558569 -.00000135  00000+0  00000+0 0  9996
2 38977  10.5047  49.7860 0002535 136.0816  53.3522  1.00272760 49702
YAMAL 300K              
1 38978U 12061B   26177.13156119  .00000000  00000+0  00000+0 0  9993
2 38978   0.0186   3.3607 0000460 235.5710 265.6601  1.00273404 49723
STAR ONE C3             
1 38991U 12062A   26178.19003038 -.00000238  00000+0  00000+0 0  9991
2 38991   0.0167  59.2403 0002615  46.0542 163.4297  1.00271951 49869
EUTELSAT 21B            
1 38992U 12062B   26178.16887584  .00000142  00000+0  00000+0 0  9998
2 38992   0.0656   6.0474 0002874  81.8463 269.7717  1.00272150 49923
ECHOSTAR 16             
1 39008U 12065A   26178.17892080 -.00000270  00000+0  00000+0 0  9991
2 39008   0.0191  21.7595 0002071  74.0211 182.4210  1.00271264 49742
ZHONGXING-12            
1 39017U 12067A   26177.82554041 -.00000195  00000+0  00000+0 0  9992
2 39017   0.0307  99.2642 0003209 348.4834 211.8730  1.00270644 49607
EUTELSAT 70B            
1 39020U 12069A   26178.10732400 -.00000032  00000+0  00000+0 0  9997
2 39020   0.0606 354.0589 0003459 102.4469 287.8616  1.00270592 49602
YAMAL 402               
1 39022U 12070A   26178.17554921  .00000096  00000+0  00000+0 0  9997
2 39022   1.2902  84.0477 0004092   8.2534 301.0781  1.00271077 49490
SKYNET 5D               
1 39034U 12075A   26178.17511588  .00000111  00000+0  00000+0 0  9995
2 39034   0.0675 346.6926 0003862 114.4678 289.9660  1.00268851 49256
MEXSAT 3                
1 39035U 12075B   26178.14189385  .00000000  00000+0  00000+0 0  9996
2 39035   0.0238  13.2483 0001283  65.5109 132.8073  1.00275045  7157
TDRS 11                 
1 39070U 13004A   26178.27601255  .00000088  00000+0  00000+0 0  9993
2 39070   3.5353  31.4216 0005029  23.9495 144.9459  1.00273050 46795
AMAZONAS 3              
1 39078U 13006A   26178.22388427 -.00000271  00000+0  00000+0 0  9996
2 39078   0.0507 226.0255 0002950 270.4025 158.4905  1.00274140 45010
AZERSPACE 1             
1 39079U 13006B   26178.17372920  .00000144  00000+0  00000+0 0  9990
2 39079   0.0181 345.4344 0001958 139.0668 259.3417  1.00275248 48904
SBIRS GEO-2 (USA 241)   
1 39120U 13011A   26178.20183661 -.00000279  00000+0  00000+0 0  9999
2 39120   4.5105  52.5111 0001982  36.4777 209.1849  1.00271652 48639
EUTELSAT 117 WEST A     
1 39122U 13012A   26178.21282856 -.00000001  00000+0  00000+0 0  9992
2 39122   0.0288 303.3950 0003044 149.7970 141.9508  1.00270869 48539
ANIK G1                 
1 39127U 13014A   26178.27001986 -.00000062  00000+0  00000+0 0  9995
2 39127   0.0197 292.5652 0001970 162.1636 170.5496  1.00271971 48354
ZHONGXING-11            
1 39157U 13020A   26176.97210544 -.00000280  00000+0  00000+0 0  9994
2 39157   0.0191 313.2763 0002630 120.3108 288.3896  1.00271990 47980
EUTELSAT 7B             
1 39163U 13022A   26178.16601583  .00000060  00000+0  00000+0 0  9998
2 39163   0.0662  11.7148 0004334  31.4784 298.8441  1.00272984 48046
WGS F5 (USA 243)        
1 39168U 13024A   26178.22553095 -.00000273  00000+0  00000+0 0  9993
2 39168   0.0139 330.1346 0000376 112.4330 221.4547  1.00271379 47277
SES-6                   
1 39172U 13026A   26178.20183661 -.00000250  00000+0  00000+0 0  9991
2 39172   0.0177  15.7156 0002906  84.9564 206.8051  1.00270789 47824
IRNSS-1A                
1 39199U 13034A   26177.74795137  .00000049  00000+0  00000+0 0  9999
2 39199  35.7414  63.7332 0018548 177.8965 357.4604  1.00278024 47464
MUOS-2                  
1 39206U 13036A   26177.91349288 -.00000006  00000+0  00000+0 0  9995
2 39206   5.0141  45.5433 0051630 176.7378 193.6241  1.00269602 47295
ALPHASAT                
1 39215U 13038A   26178.16956919  .00000143  00000+0  00000+0 0  9991
2 39215   2.9988   1.3357 0002156  99.5757 260.2996  1.00271106 44115
INSAT-3D                
1 39216U 13038B   26178.02892113 -.00000329  00000+0  00000+0 0  9999
2 39216   1.9512  82.4280 0001147   2.7760 329.8733  1.00271756 47173
WGS F6 (USA 244)        
1 39222U 13041A   26178.28725323  .00000101  00000+0  00000+0 0  9993
2 39222   0.0189  12.5275 0000614 160.3993  70.6838  1.00271303 46168
ES'HAIL 1               
1 39233U 13044A   26178.16965586  .00000155  00000+0  00000+0 0  9991
2 39233   0.0494  14.6563 0002241  78.4899 268.6930  1.00274139 46728
GSAT-7                  
1 39234U 13044B   26178.10801734 -.00000065  00000+0  00000+0 0  9991
2 39234   0.1078  91.7905 0002607 187.5120 108.7563  1.00271871 45353
AMOS-4                  
1 39237U 13045A   26178.10619733  .00000000  00000+0  00000+0 0  9999
2 39237   0.0382  69.1484 0002110  17.8023 291.4927  1.00271067 47050
AEHF-3 (USA 246)        
1 39256U 13050A   26178.21126855  .00000035  00000+0  00000+0 0  9994
2 39256   5.3176  67.0932 0088043 188.0230 332.0571  1.00275092 45759
