OBJECT_NAME,OBJECT_ID,EPOCH,MEAN_MOTION,ECCENTRICITY,INCLINATION,RA_OF_ASC_NODE,ARG_OF_PERICENTER,MEAN_ANOMALY,EPHEMERIS_TYPE,CLASSIFICATION_TYPE,NORAD_CAT_ID,ELEMENT_SET_NO,REV_AT_EPOCH,BSTAR,MEAN_MOTION_DOT,MEAN_MOTION_DDOT
GSAT-10,2012-051B,2026-06-27T04:20:46.686624,1.00271983,.00081712,0.0587,258.6398,192.4358,332.4392,0,U,38779,999,5019,0,-.153E-5,0
INTELSAT 23 (IS-23),2012-057A,2026-06-27T05:24:38.385792,1.00271309,.00002351,0.0109,34.9118,124.4833,144.0919,0,U,38867,999,5005,0,-.273E-5,0
BEIDOU-2 G6,2012-059A,2026-06-27T02:38:24.922752,1.00271322,.00096958,4.4468,73.4212,328.8904,356.5521,0,U,38953,999,5000,0,-.168E-5,0
LUCH-5B,2012-061A,2026-06-26T22:41:38.603616,1.00272760,.00025354,10.5047,49.7860,136.0816,53.3522,0,U,38977,999,4970,0,-.135E-5,0
YAMAL 300K,2012-061B,2026-06-26T03:09:26.886816,1.00273404,.000046,0.0186,3.3607,235.5710,265.6601,0,U,38978,999,4972,0,0,0
STAR ONE C3,2012-062A,2026-06-27T04:33:38.624832,1.00271951,.00026153,0.0167,59.2403,46.0542,163.4297,0,U,38991,999,4986,0,-.238E-5,0
EUTELSAT 21B,2012-062B,2026-06-27T04:03:10.872576,1.00272150,.00028747,0.0656,6.0474,81.8463,269.7717,0,U,38992,999,4992,0,.142E-5,0
ECHOSTAR 16,2012-065A,2026-06-27T04:17:38.757120,1.00271264,.00020713,0.0191,21.7595,74.0211,182.4210,0,U,39008,999,4974,0,-.27E-5,0
ZHONGXING-12,2012-067A,2026-06-26T19:48:46.691424,1.00270644,.00032099,0.0307,99.2642,348.4834,211.8730,0,U,39017,999,4960,0,-.195E-5,0
EUTELSAT 70B,2012-069A,2026-06-27T02:34:32.793600,1.00270592,.00034594,0.0606,354.0589,102.4469,287.8616,0,U,39020,999,4960,0,-.32E-6,0
YAMAL 402,2012-070A,2026-06-27T04:12:47.451744,1.00271077,.00040929,1.2902,84.0477,8.2534,301.0781,0,U,39022,999,4949,0,.96E-6,0
SKYNET 5D,2012-075A,2026-06-27T04:12:10.012032,1.00268851,.00038624,0.0675,346.6926,114.4678,289.9660,0,U,39034,999,4925,0,.111E-5,0
MEXSAT 3,2012-075B,2026-06-27T03:24:19.628640,1.00275045,.00012833,0.0238,13.2483,65.5109,132.8073,0,U,39035,999,715,0,0,0
TDRS 11,2013-004A,2026-06-27T06:37:27.484320,1.00273050,.00050292,3.5353,31.4216,23.9495,144.9459,0,U,39070,999,4679,0,.88E-6,0
AMAZONAS 3,2013-006A,2026-06-27T05:22:23.600928,1.00274140,.000295,0.0507,226.0255,270.4025,158.4905,0,U,39078,999,4501,0,-.271E-5,0
AZERSPACE 1,2013-006B,2026-06-27T04:10:10.202880,1.00275248,.00019589,0.0181,345.4344,139.0668,259.3417,0,U,39079,999,4890,0,.144E-5,0
SBIRS GEO-2 (USA 241),2013-011A,2026-06-27T04:50:38.683104,1.00271652,.00019825,4.5105,52.5111,36.4777,209.1849,0,U,39120,999,4863,0,-.279E-5,0
EUTELSAT 117 WEST A,2013-012A,2026-06-27T05:06:28.387584,1.00270869,.00030448,0.0288,303.3950,149.7970,141.9508,0,U,39122,999,4853,0,-.1E-7,0
ANIK G1,2013-014A,2026-06-27T06:28:49.715904,1.00271971,.00019708,0.0197,292.5652,162.1636,170.5496,0,U,39127,999,4835,0,-.62E-6,0
ZHONGXING-11,2013-020A,2026-06-25T23:19:49.910016,1.00271990,.00026305,0.0191,313.2763,120.3108,288.3896,0,U,39157,999,4798,0,-.28E-5,0
EUTELSAT 7B,2013-022A,2026-06-27T03:59:03.767712,1.00272984,.00043343,0.0662,11.7148,31.4784,298.8441,0,U,39163,999,4804,0,.6E-6,0
WGS F5 (USA 243),2013-024A,2026-06-27T05:24:45.874080,1.00271379,.00003766,0.0139,330.1346,112.4330,221.4547,0,U,39168,999,4727,0,-.273E-5,0
SES-6,2013-026A,2026-06-27T04:50:38.683104,1.00270789,.0002906,0.0177,15.7156,84.9564,206.8051,0,U,39172,999,4782,0,-.25E-5,0
IRNSS-1A,2013-034A,2026-06-26T17:57:02.998368,1.00278024,.00185483,35.7414,63.7332,177.8965,357.4604,0,U,39199,999,4746,0,.49E-6,0
MUOS-2,2013-036A,2026-06-26T21:55:25.784832,1.00269602,.005163,5.0141,45.5433,176.7378,193.6241,0,U,39206,999,4729,0,-.6E-7,0
ALPHASAT,2013-038A,2026-06-27T04:04:10.778016,1.00271106,.0002156,2.9988,1.3357,99.5757,260.2996,0,U,39215,999,4411,0,.143E-5,0
INSAT-3D,2013-038B,2026-06-27T00:41:38.785632,1.00271756,.00011479,1.9512,82.4280,2.7760,329.8733,0,U,39216,999,4717,0,-.329E-5,0
WGS F6 (USA 244),2013-041A,2026-06-27T06:53:38.679072,1.00271303,.00006141,0.0189,12.5275,160.3993,70.6838,0,U,39222,999,4616,0,.101E-5,0
ES'HAIL 1,2013-044A,2026-06-27T04:04:18.266304,1.00274139,.00022418,0.0494,14.6563,78.4899,268.6930,0,U,39233,999,4672,0,.155E-5,0
GSAT-7,2013-044B,2026-06-27T02:35:32.698176,1.00271871,.00026075,0.1078,91.7905,187.5120,108.7563,0,U,39234,999,4535,0,-.65E-6,0
AMOS-4,2013-045A,2026-06-27T02:32:55.449312,1.00271067,.00021104,0.0382,69.1484,17.8023,291.4927,0,U,39237,999,4705,0,0,0
AEHF-3 (USA 246),2013-050A,2026-06-27T05:04:13.602720,1.00275092,.0088043,5.3176,67.0932,188.0230,332.0571,0,U,39256,999,4575,0,.35E-6,0
